{
  "norad_id": 59879,
  "name": "STARLINK-31926",
  "history": [
    {
      "epoch": "2026-04-14T04:48:38.505888Z",
      "apogee_km": 483.7102773779761,
      "perigee_km": 482.35931265153704,
      "latitude_deg": -2.2945642716433854e-05,
      "longitude_deg": 152.40525270819828,
      "height_km": 482.74605808924974,
      "semi_major_axis_km": 6861.171795014756,
      "eccentricity": 9.845e-05,
      "inclination_deg": 43.0023,
      "raan_deg": 66.946,
      "arg_perigee_deg": 275.5515,
      "mean_anomaly_deg": 84.5224,
      "mean_motion_rev_day": 15.27584776
    },
    {
      "epoch": "2026-04-15T04:20:58.929504Z",
      "apogee_km": 483.6097742064103,
      "perigee_km": 482.4837167301048,
      "latitude_deg": -4.192966408385158e-05,
      "longitude_deg": 152.8144229832823,
      "height_km": 482.8355550708708,
      "semi_major_axis_km": 6861.183745468257,
      "eccentricity": 8.206e-05,
      "inclination_deg": 43.0015,
      "raan_deg": 61.407,
      "arg_perigee_deg": 268.7339,
      "mean_anomaly_deg": 91.3418,
      "mean_motion_rev_day": 15.27580785
    },
    {
      "epoch": "2026-04-16T13:18:15.289632Z",
      "apogee_km": 484.458292367186,
      "perigee_km": 481.5862111044089,
      "latitude_deg": 1.3527568319601731e-05,
      "longitude_deg": 9.387222557525876,
      "height_km": 482.5723159122285,
      "semi_major_axis_km": 6861.159251735797,
      "eccentricity": 0.0002093,
      "inclination_deg": 43.0035,
      "raan_deg": 53.6513,
      "arg_perigee_deg": 279.1185,
      "mean_anomaly_deg": 80.943,
      "mean_motion_rev_day": 15.27588965
    },
    {
      "epoch": "2026-04-17T20:41:24.581184Z",
      "apogee_km": 484.3695539276687,
      "perigee_km": 481.9908724761963,
      "latitude_deg": 1.543196369446364e-05,
      "longitude_deg": -110.07696207157899,
      "height_km": 483.28536589406355,
      "semi_major_axis_km": 6861.317213201933,
      "eccentricity": 0.00017334,
      "inclination_deg": 43.0047,
      "raan_deg": 46.2648,
      "arg_perigee_deg": 254.0036,
      "mean_anomaly_deg": 106.0625,
      "mean_motion_rev_day": 15.27536213
    },
    {
      "epoch": "2026-04-18T20:13:44.304096Z",
      "apogee_km": 483.79187769336113,
      "perigee_km": 482.2947681469004,
      "latitude_deg": -3.515630766811844e-06,
      "longitude_deg": -109.6655655779366,
      "height_km": 482.7044770988055,
      "semi_major_axis_km": 6861.1803229201305,
      "eccentricity": 0.0001091,
      "inclination_deg": 43.0003,
      "raan_deg": 40.7251,
      "arg_perigee_deg": 278.8624,
      "mean_anomaly_deg": 81.2104,
      "mean_motion_rev_day": 15.27581928
    },
    {
      "epoch": "2026-04-19T11:55:18.621984Z",
      "apogee_km": 483.8218982643866,
      "perigee_km": 482.328761237186,
      "latitude_deg": -5.437571128880332e-05,
      "longitude_deg": 10.604505248463283,
      "height_km": 482.691437540295,
      "semi_major_axis_km": 6861.212329750786,
      "eccentricity": 0.00010881,
      "inclination_deg": 43.0005,
      "raan_deg": 37.0327,
      "arg_perigee_deg": 282.4061,
      "mean_anomaly_deg": 77.6668,
      "mean_motion_rev_day": 15.27571239
    },
    {
      "epoch": "2026-04-20T11:27:39.935520Z",
      "apogee_km": 483.97227704760735,
      "perigee_km": 482.17628638250517,
      "latitude_deg": 3.269814998469888e-05,
      "longitude_deg": 11.010167215201523,
      "height_km": 482.70804369078957,
      "semi_major_axis_km": 6861.211281715056,
      "eccentricity": 0.00013088,
      "inclination_deg": 43.0014,
      "raan_deg": 31.4938,
      "arg_perigee_deg": 279.1645,
      "mean_anomaly_deg": 80.9059,
      "mean_motion_rev_day": 15.27571589
    }
  ]
}